CCSDS_OMM_VERS = 2.0
CREATION_DATE  = 
ORIGINATOR     = 

OBJECT_NAME    = CZ-5 R/B
OBJECT_ID      = 2025-238B
CENTER_NAME    = EARTH
REF_FRAME      = TEME
TIME_SYSTEM    = UTC
MEAN_ELEMENT_THEORY = SGP/SGP4

EPOCH          = 2025-11-13T14:18:10.251072
MEAN_MOTION    = 1.94133083
ECCENTRICITY   = .7591106
INCLINATION    = 16.3077
RA_OF_ASC_NODE = 266.3531
ARG_OF_PERICENTER = 177.1945
MEAN_ANOMALY   = 193.4320

EPHEMERIS_TYPE = 0
CLASSIFICATION_TYPE = U
NORAD_CAT_ID   = 66143
ELEMENT_SET_NO = 999
REV_AT_EPOCH   = 42
BSTAR          = .16444E-2
MEAN_MOTION_DOT = .58092E-3
MEAN_MOTION_DDOT = -.65214E-6

CCSDS_OMM_VERS = 2.0
CREATION_DATE  = 
ORIGINATOR     = 

OBJECT_NAME    = SPAINSAT NG II
OBJECT_ID      = 2025-239A
CENTER_NAME    = EARTH
REF_FRAME      = TEME
TIME_SYSTEM    = UTC
MEAN_ELEMENT_THEORY = SGP/SGP4

EPOCH          = 2025-11-11T05:46:01.696224
MEAN_MOTION    = 1.07619643
ECCENTRICITY   = .79696358
INCLINATION    = 21.6664
RA_OF_ASC_NODE = 244.3422
ARG_OF_PERICENTER = 184.0309
MEAN_ANOMALY   = 158.8894

EPHEMERIS_TYPE = 0
CLASSIFICATION_TYPE = U
NORAD_CAT_ID   = 66144
ELEMENT_SET_NO = 999
REV_AT_EPOCH   = 22
BSTAR          = 0
MEAN_MOTION_DOT = -.3E-5
MEAN_MOTION_DDOT = 0

CCSDS_OMM_VERS = 2.0
CREATION_DATE  = 
ORIGINATOR     = 

OBJECT_NAME    = STARLINK-35318
OBJECT_ID      = 2025-240A
CENTER_NAME    = EARTH
REF_FRAME      = TEME
TIME_SYSTEM    = UTC
MEAN_ELEMENT_THEORY = SGP/SGP4

EPOCH          = 2025-11-13T20:00:01.999008
MEAN_MOTION    = 15.49369185
ECCENTRICITY   = .0001494
INCLINATION    = 53.1601
RA_OF_ASC_NODE = 243.0593
ARG_OF_PERICENTER = 89.5979
MEAN_ANOMALY   = 161.9905

EPHEMERIS_TYPE = 0
CLASSIFICATION_TYPE = U
NORAD_CAT_ID   = 66146
ELEMENT_SET_NO = 999
REV_AT_EPOCH   = 430
BSTAR          = -.19988E-2
MEAN_MOTION_DOT = -.110297E-2
MEAN_MOTION_DDOT = 0

CCSDS_OMM_VERS = 2.0
CREATION_DATE  = 
ORIGINATOR     = 

OBJECT_NAME    = STARLINK-33948
OBJECT_ID      = 2025-240B
CENTER_NAME    = EARTH
REF_FRAME      = TEME
TIME_SYSTEM    = UTC
MEAN_ELEMENT_THEORY = SGP/SGP4

EPOCH          = 2025-11-13T20:00:01.999008
MEAN_MOTION    = 15.49372851
ECCENTRICITY   = .0001507
INCLINATION    = 53.1599
RA_OF_ASC_NODE = 243.0550
ARG_OF_PERICENTER = 97.9940
MEAN_ANOMALY   = 155.5218

EPHEMERIS_TYPE = 0
CLASSIFICATION_TYPE = U
NORAD_CAT_ID   = 66147
ELEMENT_SET_NO = 999
REV_AT_EPOCH   = 430
BSTAR          = -.22968E-2
MEAN_MOTION_DOT = -.12643E-2
MEAN_MOTION_DDOT = 0

CCSDS_OMM_VERS = 2.0
CREATION_DATE  = 
ORIGINATOR     = 

OBJECT_NAME    = STARLINK-35081
OBJECT_ID      = 2025-240C
CENTER_NAME    = EARTH
REF_FRAME      = TEME
TIME_SYSTEM    = UTC
MEAN_ELEMENT_THEORY = SGP/SGP4

EPOCH          = 2025-11-13T20:00:01.999008
MEAN_MOTION    = 15.50504465
ECCENTRICITY   = .0000938
INCLINATION    = 53.1599
RA_OF_ASC_NODE = 243.0483
ARG_OF_PERICENTER = 114.1981
MEAN_ANOMALY   = 142.8541

EPHEMERIS_TYPE = 0
CLASSIFICATION_TYPE = U
NORAD_CAT_ID   = 66148
ELEMENT_SET_NO = 999
REV_AT_EPOCH   = 425
BSTAR          = .19695E-2
MEAN_MOTION_DOT = .115511E-2
MEAN_MOTION_DDOT = 0

CCSDS_OMM_VERS = 2.0
CREATION_DATE  = 
ORIGINATOR     = 

OBJECT_NAME    = STARLINK-35601
OBJECT_ID      = 2025-240D
CENTER_NAME    = EARTH
REF_FRAME      = TEME
TIME_SYSTEM    = UTC
MEAN_ELEMENT_THEORY = SGP/SGP4

EPOCH          = 2025-11-13T20:00:01.999008
MEAN_MOTION    = 15.49316050
ECCENTRICITY   = .0000867
INCLINATION    = 53.1601
RA_OF_ASC_NODE = 243.0470
ARG_OF_PERICENTER = 85.8158
MEAN_ANOMALY   = 171.5020

EPHEMERIS_TYPE = 0
CLASSIFICATION_TYPE = U
NORAD_CAT_ID   = 66149
ELEMENT_SET_NO = 999
REV_AT_EPOCH   = 425
BSTAR          = -.2024E-3
MEAN_MOTION_DOT = -.1169E-3
MEAN_MOTION_DDOT = 0

CCSDS_OMM_VERS = 2.0
CREATION_DATE  = 
ORIGINATOR     = 

OBJECT_NAME    = STARLINK-35605
OBJECT_ID      = 2025-240E
CENTER_NAME    = EARTH
REF_FRAME      = TEME
TIME_SYSTEM    = UTC
MEAN_ELEMENT_THEORY = SGP/SGP4

EPOCH          = 2025-11-13T20:00:01.999008
MEAN_MOTION    = 15.49282980
ECCENTRICITY   = .0000884
INCLINATION    = 53.1599
RA_OF_ASC_NODE = 243.0435
ARG_OF_PERICENTER = 78.2016
MEAN_ANOMALY   = 181.0434

EPHEMERIS_TYPE = 0
CLASSIFICATION_TYPE = U
NORAD_CAT_ID   = 66150
ELEMENT_SET_NO = 999
REV_AT_EPOCH   = 425
BSTAR          = .75078E-3
MEAN_MOTION_DOT = .4149E-3
MEAN_MOTION_DDOT = 0

CCSDS_OMM_VERS = 2.0
CREATION_DATE  = 
ORIGINATOR     = 

OBJECT_NAME    = STARLINK-35540
OBJECT_ID      = 2025-240F
CENTER_NAME    = EARTH
REF_FRAME      = TEME
TIME_SYSTEM    = UTC
MEAN_ELEMENT_THEORY = SGP/SGP4

EPOCH          = 2025-11-13T20:00:01.999008
MEAN_MOTION    = 15.49340302
ECCENTRICITY   = .0000872
INCLINATION    = 53.1601
RA_OF_ASC_NODE = 243.0390
ARG_OF_PERICENTER = 91.9273
MEAN_ANOMALY   = 169.2281

EPHEMERIS_TYPE = 0
CLASSIFICATION_TYPE = U
NORAD_CAT_ID   = 66151
ELEMENT_SET_NO = 999
REV_AT_EPOCH   = 425
BSTAR          = -.89568E-3
MEAN_MOTION_DOT = -.49998E-3
MEAN_MOTION_DDOT = 0

CCSDS_OMM_VERS = 2.0
CREATION_DATE  = 
ORIGINATOR     = 

OBJECT_NAME    = STARLINK-35455
OBJECT_ID      = 2025-240G
CENTER_NAME    = EARTH
REF_FRAME      = TEME
TIME_SYSTEM    = UTC
MEAN_ELEMENT_THEORY = SGP/SGP4

EPOCH          = 2025-11-13T20:00:01.999008
MEAN_MOTION    = 15.49351194
ECCENTRICITY   = .0001425
INCLINATION    = 53.1598
RA_OF_ASC_NODE = 243.0351
ARG_OF_PERICENTER = 88.6376
MEAN_ANOMALY   = 174.4508

EPHEMERIS_TYPE = 0
CLASSIFICATION_TYPE = U
NORAD_CAT_ID   = 66152
ELEMENT_SET_NO = 999
REV_AT_EPOCH   = 425
BSTAR          = -.13325E-2
MEAN_MOTION_DOT = -.73968E-3
MEAN_MOTION_DDOT = 0

CCSDS_OMM_VERS = 2.0
CREATION_DATE  = 
ORIGINATOR     = 

OBJECT_NAME    = STARLINK-34752
OBJECT_ID      = 2025-240H
CENTER_NAME    = EARTH
REF_FRAME      = TEME
TIME_SYSTEM    = UTC
MEAN_ELEMENT_THEORY = SGP/SGP4

EPOCH          = 2025-11-13T20:00:01.999008
MEAN_MOTION    = 15.49371724
ECCENTRICITY   = .0001535
INCLINATION    = 53.1598
RA_OF_ASC_NODE = 243.0320
ARG_OF_PERICENTER = 91.0251
MEAN_ANOMALY   = 173.9888

EPHEMERIS_TYPE = 0
CLASSIFICATION_TYPE = U
NORAD_CAT_ID   = 66153
ELEMENT_SET_NO = 999
REV_AT_EPOCH   = 425
BSTAR          = -.21901E-2
MEAN_MOTION_DOT = -.120661E-2
MEAN_MOTION_DDOT = 0

CCSDS_OMM_VERS = 2.0
CREATION_DATE  = 
ORIGINATOR     = 

OBJECT_NAME    = STARLINK-34625
OBJECT_ID      = 2025-240J
CENTER_NAME    = EARTH
REF_FRAME      = TEME
TIME_SYSTEM    = UTC
MEAN_ELEMENT_THEORY = SGP/SGP4

EPOCH          = 2025-11-13T20:00:01.999008
MEAN_MOTION    = 15.49380443
ECCENTRICITY   = .0001604
INCLINATION    = 53.1599
RA_OF_ASC_NODE = 243.0273
ARG_OF_PERICENTER = 89.6276
MEAN_ANOMALY   = 177.2982

EPHEMERIS_TYPE = 0
CLASSIFICATION_TYPE = U
NORAD_CAT_ID   = 66154
ELEMENT_SET_NO = 999
REV_AT_EPOCH   = 430
BSTAR          = -.24608E-2
MEAN_MOTION_DOT = -.13531E-2
MEAN_MOTION_DDOT = 0

CCSDS_OMM_VERS = 2.0
CREATION_DATE  = 
ORIGINATOR     = 

OBJECT_NAME    = STARLINK-35580
OBJECT_ID      = 2025-240K
CENTER_NAME    = EARTH
REF_FRAME      = TEME
TIME_SYSTEM    = UTC
MEAN_ELEMENT_THEORY = SGP/SGP4

EPOCH          = 2025-11-13T20:00:01.999008
MEAN_MOTION    = 15.49358405
ECCENTRICITY   = .0000986
INCLINATION    = 53.1600
RA_OF_ASC_NODE = 243.0224
ARG_OF_PERICENTER = 93.2500
MEAN_ANOMALY   = 175.5729

EPHEMERIS_TYPE = 0
CLASSIFICATION_TYPE = U
NORAD_CAT_ID   = 66155
ELEMENT_SET_NO = 999
REV_AT_EPOCH   = 425
BSTAR          = -.1134E-2
MEAN_MOTION_DOT = -.63119E-3
MEAN_MOTION_DDOT = 0

