CZ-5 R/B                
1 66143U 25238B   25317.59595198  .00058092 -65214-6  16444-2 0  9999
2 66143  16.3077 266.3531 7591106 177.1945 193.4320  1.94133083   425
SPAINSAT NG II          
1 66144U 25239A   25315.24029741 -.00000300  00000+0  00000+0 0  9999
2 66144  21.6664 244.3422 7969635 184.0309 158.8894  1.07619643   223
STARLINK-35318          
1 66146U 25240A   25317.83335647 -.00110297  00000+0 -19988-2 0  9991
2 66146  53.1601 243.0593 0001494  89.5979 161.9905 15.49369185  4301
STARLINK-33948          
1 66147U 25240B   25317.83335647 -.00126430  00000+0 -22968-2 0  9990
2 66147  53.1599 243.0550 0001507  97.9940 155.5218 15.49372851  4307
STARLINK-35081          
1 66148U 25240C   25317.83335647  .00115511  00000+0  19695-2 0  9990
2 66148  53.1599 243.0483 0000938 114.1981 142.8541 15.50504465  4259
STARLINK-35601          
1 66149U 25240D   25317.83335647 -.00011690  00000+0 -20240-3 0  9995
2 66149  53.1601 243.0470 0000867  85.8158 171.5020 15.49316050  4251
STARLINK-35605          
1 66150U 25240E   25317.83335647  .00041490  00000+0  75078-3 0  9995
2 66150  53.1599 243.0435 0000884  78.2016 181.0434 15.49282980  4257
STARLINK-35540          
1 66151U 25240F   25317.83335647 -.00049998  00000+0 -89568-3 0  9998
2 66151  53.1601 243.0390 0000872  91.9273 169.2281 15.49340302  4257
STARLINK-35455          
1 66152U 25240G   25317.83335647 -.00073968  00000+0 -13325-2 0  9990
2 66152  53.1598 243.0351 0001425  88.6376 174.4508 15.49351194  4253
STARLINK-34752          
1 66153U 25240H   25317.83335647 -.00120661  00000+0 -21901-2 0  9993
2 66153  53.1598 243.0320 0001535  91.0251 173.9888 15.49371724  4258
STARLINK-34625          
1 66154U 25240J   25317.83335647 -.00135310  00000+0 -24608-2 0  9998
2 66154  53.1599 243.0273 0001604  89.6276 177.2982 15.49380443  4300
STARLINK-35580          
1 66155U 25240K   25317.83335647 -.00063119  00000+0 -11340-2 0  9995
2 66155  53.1600 243.0224 0000986  93.2500 175.5729 15.49358405  4250
